[{"OBJECT_NAME":"STARLINK-30094","OBJECT_ID":"2023-056V","EPOCH":"2026-03-09T22:00:01.999584","MEAN_MOTION":15.26730581,"ECCENTRICITY":0.00016161,"INCLINATION":42.9993,"RA_OF_ASC_NODE":207.0517,"ARG_OF_PERICENTER":283.1373,"MEAN_ANOMALY":319.4539,"EPHEMERIS_TYPE":0,"CLASSIFICATION_TYPE":"U","NORAD_CAT_ID":56305,"ELEMENT_SET_NO":999,"REV_AT_EPOCH":578,"BSTAR":0.001531911,"MEAN_MOTION_DOT":0.00041049,"MEAN_MOTION_DDOT":0},{"OBJECT_NAME":"STARLINK-30069","OBJECT_ID":"2023-079M","EPOCH":"2026-03-08T11:34:15.947328","MEAN_MOTION":15.26726881,"ECCENTRICITY":4.69e-5,"INCLINATION":42.9986,"RA_OF_ASC_NODE":110.4464,"ARG_OF_PERICENTER":272.6695,"MEAN_ANOMALY":87.4103,"EPHEMERIS_TYPE":0,"CLASSIFICATION_TYPE":"U","NORAD_CAT_ID":56834,"ELEMENT_SET_NO":999,"REV_AT_EPOCH":15274,"BSTAR":-8.0472e-5,"MEAN_MOTION_DOT":-2.416e-5,"MEAN_MOTION_DDOT":0}]
